NORAD_CAT_ID,OBJECT_NAME,OBJECT_TYPE,EPOCH,MEAN_MOTION,ECCENTRICITY,INCLINATION,RA_OF_ASC_NODE,ARG_OF_PERICENTER,MEAN_ANOMALY,BSTAR,MEAN_MOTION_DOT,MEAN_MOTION_DDOT,TLE_LINE0,TLE_LINE1,TLE_LINE2,SEMIMAJOR_AXIS,PERIOD,APOGEE,PERIGEE,DECAYED
52133.0,STARLINK-3707,PAYLOAD,2022-07-25 22:00:00,15.08810487,0.0001745,53.2151,247.2633,55.7819,287.512,0.0016855,0.00026617,0.0,0 STARLINK-3707,1 52133U 22029AX  22206.91667824  .00026617  00000-0  16855-2 0  9993,2 52133  53.2151 247.2633 0001745  55.7819 287.5120 15.08810487  1303,6917.971,95.439,541.043,538.628,0.0
52133.0,STARLINK-3707,PAYLOAD,2022-07-26 06:00:00,15.0884559,0.0001833,53.2152,245.7675,55.9529,298.9063,-0.0017487,-0.00028016,0.0,0 STARLINK-3707,1 52133U 22029AX  22207.25001157 -.00028016  00000-0 -17487-2 0  9991,2 52133  53.2152 245.7675 0001833  55.9529 298.9063 15.08845590 21285,6917.863,95.437,540.996,538.46,0.0
52133.0,STARLINK-3707,PAYLOAD,2022-07-26 14:00:01,15.08814049,0.0001933,53.2149,244.2722,50.2705,316.1803,0.0023103999999999,0.00036648,0.0,0 STARLINK-3707,1 52133U 22029AX  22207.58334491  .00036648  00000-0  23104-2 0  9998,2 52133  53.2149 244.2722 0001933  50.2705 316.1803 15.08814049  1304,6917.96,95.439,541.1619999999998,538.487,0.0
52133.0,STARLINK-3707,PAYLOAD,2022-07-26 22:00:00,15.08813986,0.0001778,53.2151,242.7741,56.3489,321.6902,0.0020614,0.00032648,0.0,0 STARLINK-3707,1 52133U 22029AX  22207.91667824  .00032648  00000-0  20614-2 0  9993,2 52133  53.2151 242.7741 0001778  56.3489 321.6902 15.08813986  1304,6917.96,95.439,541.055,538.595,0.0
52133.0,STARLINK-3707,PAYLOAD,2022-07-27 14:00:01,15.08825267,0.0001952,53.2148,239.783,50.2492,350.966,0.0018864,0.0002985,0.0,0 STARLINK-3707,1 52133U 22029AX  22208.58334491  .00029850  00000-0  18864-2 0  9993,2 52133  53.2148 239.7830 0001952  50.2492 350.9660 15.08825267 21499,6917.925,95.438,541.141,538.44,0.0
52133.0,STARLINK-3707,PAYLOAD,2022-07-27 22:00:00,15.08818799,0.0001771999999999,53.2149,238.2849,56.9591,355.8553,0.0023561,0.00037387,0.0,0 STARLINK-3707,1 52133U 22029AX  22208.91667824  .00037387  00000-0  23561-2 0  9993,2 52133  53.2149 238.2849 0001772  56.9591 355.8553 15.08818799  1302,6917.945,95.439,541.036,538.5840000000002,0.0
52133.0,STARLINK-3707,PAYLOAD,2022-07-28 06:00:00,15.08859741,0.0001879,53.2149,236.7895,55.8596,8.538,-0.0020509,-0.00032798,0.0,0 STARLINK-3707,1 52133U 22029AX  22209.25001157 -.00032798  00000-0 -20509-2 0  9994,2 52133  53.2149 236.7895 0001879  55.8596   8.5380 15.08859741 21592,6917.82,95.436,540.985,538.385,0.0
52133.0,STARLINK-3707,PAYLOAD,2022-07-28 14:00:01,15.08834079,0.0001947,53.2146,235.2937,50.8527,25.1494,0.0013804,0.00021746,0.0,0 STARLINK-3707,1 52133U 22029AX  22209.58334491  .00021746  00000-0  13804-2 0  9999,2 52133  53.2146 235.2937 0001947  50.8527  25.1494 15.08834079  1300,6917.898,95.438,541.11,538.4169999999998,0.0
52133.0,STARLINK-3707,PAYLOAD,2022-07-28 22:00:00,15.08822566,0.0001766,53.2152,233.7955,57.8573,29.7511,0.0024368,0.00038689,0.0,0 STARLINK-3707,1 52133U 22029AX  22209.91667824  .00038689  00000-0  24368-2 0  9996,2 52133  53.2152 233.7955 0001766  57.8573  29.7511 15.08822566 21699,6917.934,95.439,541.02,538.577,0.0
52133.0,STARLINK-3707,PAYLOAD,2022-07-29 14:00:01,15.08839991,0.0001955,53.2151,230.8043,52.145,58.6581,0.00077779,0.00012112,0.0,0 STARLINK-3707,1 52133U 22029AX  22210.58334491  .00012112  00000-0  77779-3 0  9990,2 52133  53.2151 230.8043 0001955  52.1450  58.6581 15.08839991 21795,6917.88,95.438,541.0980000000002,538.393,0.0
52133.0,STARLINK-3707,PAYLOAD,2022-07-29 22:00:00,15.08823708,0.0001791,53.2151,229.3063,59.2643,63.1452,0.0023484,0.00037268,0.0,0 STARLINK-3707,1 52133U 22029AX  22210.91667824  .00037268  00000-0  23484-2 0  9998,2 52133  53.2151 229.3063 0001791  59.2643  63.1452 15.08823708  1302,6917.93,95.439,541.034,538.556,0.0
52133.0,STARLINK-3707,PAYLOAD,2022-07-30 14:00:01,15.08844903,0.0001986,53.2148,226.3149,53.4253,92.179,0.00026561,3.942e-05,0.0,0 STARLINK-3707,1 52133U 22029AX  22211.58334491  .00003942  00000-0  26561-3 0  9995,2 52133  53.2148 226.3149 0001986  53.4253  92.1790 15.08844903 21948,6917.865,95.437,541.104,538.357,0.0
52133.0,STARLINK-3707,PAYLOAD,2022-07-30 22:00:00,15.08826974,0.0001853,53.2148,224.8168,60.0198,97.1948,0.0022874,0.00036291,0.0,0 STARLINK-3707,1 52133U 22029AX  22211.91667824  .00036291  00000-0  22874-2 0  9996,2 52133  53.2148 224.8168 0001853  60.0198  97.1948 15.08826974  1303,6917.92,95.438,541.067,538.503,0.0
52133.0,STARLINK-3707,PAYLOAD,2022-07-31 14:00:01,15.08851451,0.0002046999999999,53.2149,221.8254,54.0808,126.3309,-0.00030472,-5.136e-05,0.0,0 STARLINK-3707,1 52133U 22029AX  22212.58334491 -.00005136  00000-0 -30472-3 0  9991,2 52133  53.2149 221.8254 0002047  54.0808 126.3309 15.08851451  1308,6917.845,95.437,541.126,538.294,0.0
52133.0,STARLINK-3707,PAYLOAD,2022-07-31 22:00:00,15.0883641,0.0001914,53.215,220.3273,59.817,132.2067,0.0010386,0.00016278,0.0,0 STARLINK-3707,1 52133U 22029AX  22212.91667824  .00016278  00000-0  10386-2 0  9995,2 52133  53.2150 220.3273 0001914  59.8170 132.2067 15.08836410 22142,6917.891,95.438,541.08,538.432,0.0
52133.0,STARLINK-3707,PAYLOAD,2022-08-01 14:00:01,15.08833043,0.0002032999999999,53.2153,217.3359,52.5993,162.6052,-0.00084934,-0.00013778,0.0,0 STARLINK-3707,1 52133U 22029AX  22213.58334491 -.00013778  00000-0 -84934-3 0  9995,2 52133  53.2153 217.3359 0002033  52.5993 162.6052 15.08833043  1307,6917.901999999999,95.438,541.173,538.36,0.0
52133.0,STARLINK-3707,PAYLOAD,2022-08-01 22:00:00,15.08808393,0.0001938,53.2156,215.8379,58.4314,168.36,0.0022732,0.00036044,0.0,0 STARLINK-3707,1 52133U 22029AX  22213.91667824  .00036044  00000-0  22732-2 0  9997,2 52133  53.2156 215.8379 0001938  58.4314 168.3600 15.08808393  1302,6917.977,95.44,541.183,538.501,0.0
52133.0,STARLINK-3707,PAYLOAD,2022-08-02 14:00:01,15.08842222,0.0002117,53.216,212.8467,53.306,196.6361,-0.0014515,-0.00023317,0.0,0 STARLINK-3707,1 52133U 22029AX  22214.58334491 -.00023317  00000-0 -14515-2 0  9993,2 52133  53.2160 212.8467 0002117  53.3060 196.6361 15.08842222  1301,6917.874,95.437,541.203,538.274,0.0
52133.0,STARLINK-3707,PAYLOAD,2022-08-03 04:00:00,15.08848579,0.0002137,53.2167,210.2277,57.2044,123.015,-0.0017944,-0.0002874,0.0,0 STARLINK-3707,1 52133U 22029AX  22215.16667824 -.00028740  00000-0 -17944-2 0  9991,2 52133  53.2167 210.2277 0002137  57.2044 123.0150 15.08848579 22489,6917.854,95.437,541.198,538.241,0.0
52133.0,STARLINK-3707,PAYLOAD,2022-08-03 14:00:01,15.08852524,0.0002174,53.2166,208.3575,54.476000000000006,230.2279,-0.0018807,-0.00030106,0.0,0 STARLINK-3707,1 52133U 22029AX  22215.58334491 -.00030106  00000-0 -18807-2 0  9996,2 52133  53.2166 208.3575 0002174  54.4760 230.2279 15.08852524  1308,6917.842,95.437,541.211,538.203,0.0
52133.0,STARLINK-3707,PAYLOAD,2022-08-03 20:00:01,15.08818126,0.0002068,53.2168,207.234,58.9783,144.4337,0.0023675,0.0003756999999999,0.0,0 STARLINK-3707,1 52133U 22029AX  22215.83334491  .00037570  00000-0  23675-2 0  9993,2 52133  53.2168 207.2340 0002068  58.9783 144.4337 15.08818126 22588,6917.946999999999,95.439,541.243,538.382,0.0
52133.0,STARLINK-3707,PAYLOAD,2022-08-03 22:00:01,15.08823085,0.0002089999999999,53.2169,206.8597,60.5763,235.7931,0.0022805,0.00036176,0.0,0 STARLINK-3707,1 52133U 22029AX  22215.91668981  .00036176  00000-0  22805-2 0  9991,2 52133  53.2169 206.8597 0002090  60.5763 235.7931 15.08823085  1301,6917.932,95.439,541.243,538.351,0.0
52133.0,STARLINK-3707,PAYLOAD,2022-08-04 14:00:01,15.08861319,0.0002195,53.2167,203.8684,56.0448,263.4468,-0.0021744,-0.00034749,0.0,0 STARLINK-3707,1 52133U 22029AX  22216.58334491 -.00034749  00000-0 -21744-2 0  9998,2 52133  53.2167 203.8684 0002195  56.0448 263.4468 15.08861319  1304,6917.815,95.436,541.1990000000002,538.1619999999998,0.0
52133.0,STARLINK-3707,PAYLOAD,2022-08-04 22:00:00,15.08851062,0.0002085999999999,53.2173,202.3745,61.1602,269.9349,-0.0012675999999999,-0.00020412,0.0,0 STARLINK-3707,1 52133U 22029AX  22216.91667824 -.00020412  00000-0 -12676-2 0  9990,2 52133  53.2173 202.3745 0002086  61.1602 269.9349 15.08851062  1304,6917.847,95.437,541.155,538.269,0.0
52133.0,STARLINK-3707,PAYLOAD,2022-08-05 06:00:02,15.08850668,0.0002253,53.2167,200.8763,57.9036,284.8629,-0.00070153,-0.00011439,0.0,0 STARLINK-3707,1 52133U 22029AX  22217.25002315 -.00011439  00000-0 -70153-3 0  9990,2 52133  53.2167 200.8763 0002253  57.9036 284.8629 15.08850668 22794,6917.848000000001,95.437,541.271,538.154,0.0
52133.0,STARLINK-3707,PAYLOAD,2022-08-05 14:00:01,15.08877538,0.0002147,53.2163,199.3793,57.2984,297.0666,-0.005303,-0.00083794,0.0,0 STARLINK-3707,1 52133U 22029AX  22217.58335648 -.00083794  00000-0 -53030-2 0  9991,2 52133  53.2163 199.3793 0002147  57.2984 297.0666 15.08877538  1308,6917.766,95.435,541.116,538.145,0.0
52133.0,STARLINK-3707,PAYLOAD,2022-08-05 22:00:00,15.08814104,0.0002021999999999,53.2164,197.882,63.0418,302.8697,0.0019925999999999,0.00031544,0.0,0 STARLINK-3707,1 52133U 22029AX  22217.91667824  .00031544  00000-0  19926-2 0  9992,2 52133  53.2164 197.8820 0002022  63.0418 302.8697 15.08814104  1301,6917.96,95.439,541.2230000000002,538.4259999999998,0.0
52133.0,STARLINK-3707,PAYLOAD,2022-08-06 14:00:01,15.08845333,0.0002123,53.2156,194.8904,58.9028,330.1592,-0.0021958,-0.00035071,0.0,0 STARLINK-3707,1 52133U 22029AX  22218.58334491 -.00035071  00000-0 -21958-2 0  9996,2 52133  53.2156 194.8904 0002123  58.9028 330.1592 15.08845333 23001,6917.864000000001,95.437,541.198,538.26,0.0
52133.0,STARLINK-3707,PAYLOAD,2022-08-06 21:49:17,15.08833389,0.0002141,53.2173,193.4264,62.2532,297.8677,-5.4111e-05,-1.149e-05,0.0,0 STARLINK-3707,1 52133U 22029AX  22218.90922520 -.00001149  00000-0 -54111-4 0  9996,2 52133  53.2173 193.4264 0002141  62.2532 297.8677 15.08833389 23058,6917.901,95.438,541.247,538.284,0.0
